CUTE-1 (CO-55)          
1 27844U 03031E   24014.76799222  .00000720  00000+0  33881-3 0  9991
2 27844  98.6787  23.9643 0008926 228.7602 131.2807 14.23035621 65821
CUBESAT XI-IV (CO-57)   
1 27848U 03031J   24014.57296993  .00000620  00000+0  29719-3 0  9995
2 27848  98.6821  24.0977 0008683 246.4385 113.5882 14.22510124 65552
CUBESAT XI-V            
1 28895U 05043F   24014.36369928  .00003418  00000+0  62147-3 0  9999
2 28895  98.1782 150.3215 0016937 124.4789 235.8017 14.66709001971756
CUTE-1.7+APD II (CO-65) 
1 32785U 08021C   24014.87040049  .00007308  00000+0  68027-3 0  9992
2 32785  97.7368 341.9505 0013177 115.1733 245.0855 14.94524805852415
AAUSAT-II               
1 32788U 08021F   24014.87470808  .00025242  00000+0  15479-2 0  9994
2 32788  97.5830 355.7128 0006960  11.1627 348.9755 15.10106176854985
SEEDS II (CO-66)        
1 32791U 08021J   24014.90740688  .00012630  00000+0  10127-2 0  9990
2 32791  97.6800 347.5185 0009806  74.7029 285.5278 15.00207614853446
SWISSCUBE               
1 35932U 09051B   24014.62485621  .00002274  00000+0  50057-3 0  9996
2 35932  98.4927 254.7289 0008536  75.7894 284.4252 14.58425635760027
BEESAT-1                
1 35933U 09051C   24015.15488108  .00002052  00000+0  45460-3 0  9995
2 35933  98.4857 256.3686 0006817  85.6969 274.5008 14.58246859760255
ITUPSAT1                
1 35935U 09051E   24014.64979738  .00001797  00000+0  40814-3 0  9997
2 35935  98.4956 255.7136 0009084  92.1854 268.0384 14.57246054759759
TISAT 1                 
1 36799U 10035E   24014.60504235  .00011204  00000+0  92049-3 0  9993
2 36799  98.1045 257.5709 0009316   3.2049 356.9231 14.99321090734073
M-CUBED & EXP-1 PRIME   
1 37855U 11061F   24014.83689749  .00077910  00000+0  15268-2 0  9999
2 37855 101.6893 104.0083 0083546 104.6063 256.4452 15.43299182669003
AEROCUBE 4.5A           
1 38767U 12048K   24014.53872039  .00011166  00000+0  70079-3 0  9994
2 38767  64.6627  89.3550 0103312  75.5892 285.6666 15.05290351237158
AEROCUBE 4.5B           
1 38768U 12048L   24014.42827855  .00022706  00000+0  10953-2 0  9995
2 38768  64.6631  24.7423 0082618  65.0431 295.9247 15.15679058237902
STRAND-1                
1 39090U 13009E   24014.51794162  .00000724  00000+0  26449-3 0  9990
2 39090  98.3798 207.0597 0008878   1.6366 358.4848 14.35846861570042
BRITE-AUSTRIA           
1 39091U 13009F   24014.46909672  .00000472  00000+0  17814-3 0  9995
2 39091  98.3834 206.2687 0010556   7.8114 352.3235 14.35653276570061
BEESAT-2                
1 39136U 13015G   24015.06813140  .00586974  00000+0  21543-2 0  9992
2 39136  64.8508 345.3093 0006990 275.1690  84.8672 15.86574083595096
NEE-01 PEGASO           
1 39151U 13018B   24014.98065290  .00005588  00000+0  67108-3 0  9992
2 39151  98.0223 130.9354 0015559 178.4599 181.6665 14.84313087579090
ESTCUBE 1               
1 39161U 13021C   24015.17044501  .00003615  00000+0  53916-3 0  9992
2 39161  97.8490  86.3045 0009353  15.7484 344.4014 14.75403186574414
POPACS 1                
1 39268U 13055D   24014.18429576  .00030372  00000+0  60205-3 0  9995
2 39268  80.9889 327.4749 0450295 226.5952 129.6948 14.80978795537512
POPACS 2                
1 39269U 13055E   24015.04224427  .00019029  00000+0  45680-3 0  9996
2 39269  81.0034  45.9482 0577934  71.1415 295.1518 14.50348451534427
POPACS 3                
1 39270U 13055F   24014.18346319  .00017028  00000+0  48263-3 0  9994
2 39270  81.0108  92.7164 0644668 202.3647 154.8238 14.32781883510730
ZACUBE-1 (TSHEPISOSAT)  
1 39417U 13066B   24014.87494574  .00008500  00000+0  92872-3 0  9992
2 39417  97.7157 334.7526 0051509 311.7389  47.9428 14.87138721548636
WNISAT-1                
1 39423U 13066H   24015.11221735  .00001731  00000+0  34004-3 0  9996
2 39423  97.6781 221.8828 0172233 132.5132 229.0762 14.54752798538249
TRITON-1                
1 39427U 13066M   24015.08701000  .00004816  00000+0  70141-3 0  9993
2 39427  97.8430 298.2207 0104091 217.2390 142.1569 14.72645357543719
DELFI-N3XT              
1 39428U 13066N   24014.78164551  .00009281  00000+0  12549-2 0  9992
2 39428  97.8396 297.5289 0104167 227.6776 131.5574 14.75491568543488
GOMX-1                  
1 39430U 13066Q   24015.15928195  .00004603  00000+0  78150-3 0  9993
2 39430  97.7539 258.7782 0143399  22.4867 338.2536 14.63038553540511
CUBEBUG-2 (LO-74)       
1 39440U 13066AA  24014.80348426  .00007721  00000+0  94772-3 0  9990
2 39440  97.7989 322.1927 0074059  58.8026 302.0419 14.81390374545464
NEE-02 KRYSAOR          
1 39441U 13066AB  24014.83108521  .00004397  00000+0  57510-3 0  9999
2 39441  97.8090 318.5981 0077805  77.6195 283.3711 14.78804212545111
FUNCUBE-1 (AO-73)       
1 39444U 13066AE  24014.82956716  .00010682  00000+0  11040-2 0  9999
2 39444  97.7014 337.5118 0048901 294.3859  65.2259 14.89407092547115
UWE-3                   
1 39446U 13066AG  24014.82130105  .00008846  00000+0  10289-2 0  9990
2 39446  97.7642 328.2818 0063312   7.8358 352.3830 14.84087237545799
BRITE-CA1 (TORONTO)     
1 40020U 14033L   24014.95356266  .00003105  00000+0  51388-3 0  9996
2 40020  97.8520 157.8206 0083286 223.9295 135.5270 14.68724639512334
DUCHIFAT-1              
1 40021U 14033M   24014.88620893  .00017195  00000+0  12976-2 0  9992
2 40021  98.0753 351.5555 0012523 261.8262  98.1542 15.02435014520922
NANOSATC-BR1            
1 40024U 14033Q   24015.12301649  .00014699  00000+0  11965-2 0  9991
2 40024  98.0595 341.4181 0007714 316.4802  43.5810 14.99615657520655
QB50P1                  
1 40025U 14033R   24014.87376624  .00011095  00000+0  97315-3 0  9999
2 40025  98.0236 331.1159 0009479 318.5270  41.5231 14.96781556519776
QB50P2                  
1 40032U 14033Y   24014.78993719  .00009912  00000+0  89292-3 0  9997
2 40032  97.9909 323.6786 0009012 318.0760  41.9769 14.95767285519573
PERSEUS-M2              
1 40037U 14033AD  24014.76672275  .00003583  00000+0  38178-3 0  9996
2 40037  97.9200 305.2203 0013381 351.2375   8.8607 14.89476600518839
PERSEUS-M1              
1 40039U 14033AF  24014.76562536  .00003462  00000+0  37168-3 0  9990
2 40039  97.9026 301.6988 0013183 350.6139   9.4829 14.89193879518699
POLYITAN-1              
1 40042U 14033AJ  24014.83472286  .00014541  00000+0  12178-2 0  9997
2 40042  98.0367 333.6893 0010183 312.1267  47.9088 14.98500845519695
TIGRISAT                
1 40043U 14033AK  24015.01788460  .00004265  00000+0  58514-3 0  9990
2 40043  97.6763 184.7054 0057778  85.3932 275.3876 14.77739070514984
AEROCUBE 6A             
1 40045U 14033AM  24014.46819222  .00006484  00000+0  82097-3 0  9999
2 40045  97.6576 194.4307 0053657  68.9907 291.7034 14.81083690514879
AEROCUBE 6B             
1 40046U 14033AN  24014.92980423  .00007775  00000+0  96489-3 0  9997
2 40046  97.6538 193.4560 0052207  63.8476 296.8094 14.81910634514984
UKUBE-1                 
1 40074U 14037F   24014.72195408  .00010276  00000+0  10444-2 0  9997
2 40074  98.3410 295.5818 0002986 197.2378 162.8737 14.91003724515749
BRITE-PL2 (HEWELIUSZ)   
1 40119U 14049B   24014.92040591  .00003658  00000+0  40589-3 0  9994
2 40119  97.8816 115.4843 0016872 148.3187 211.9048 14.87764202509637
GRIFEX                  
1 40379U 15003D   24014.92596830  .00259989  00000+0  14366-2 0  9998
2 40379  99.0825  13.0897 0032120 240.5550 119.2504 15.78160677496273
CP10 (EXOCUBE)          
1 40380U 15003E   24014.91376327  .00073907  00000+0  11895-2 0  9994
2 40380  99.1016 357.3400 0065236 297.2928  62.1684 15.50268553495315
EXACTVIEW 9             
1 40936U 15052G   24006.07845669  .00002815  00000+0  28083-3 0  9991
2 40936   6.0026  75.6655 0010627 288.6842  71.2132 14.79620840447345
AEROCUBE 5C             
1 40965U 15058B   24014.66118239  .00004268  00000+0  43317-3 0  9990
2 40965  64.7718 115.3773 0178714 357.0170   2.9853 14.81035985234142
AEROCUBE 7              
1 40966U 15058C   24014.64381863  .00005592  00000+0  54788-3 0  9999
2 40966  64.7701 110.4410 0175115 356.7200   3.2743 14.82406598234180
VELOX-II                
1 41171U 15077F   24014.74010455  .00062196  00000+0  13978-2 0  9994
2 41171  14.9886 176.4667 0004372 354.0313   5.9959 15.41463899447725
HORYU-4                 
1 41340U 16012D   24014.81595859  .00013533  00000+0  76073-3 0  9993
2 41340  31.0025 258.1599 0010440 212.3037 147.6963 15.12043550434734
E-ST@R-II               
1 41459U 16025D   24015.13393659  .00102894  00000+0  15524-2 0  9990
2 41459  98.1527 245.6488 0069825  70.6130 290.2650 15.51570809425490
RAVAN                   
1 41849U 16067B   24014.99225265  .00017248  00000+0  10595-2 0  9990
2 41849  98.0523 184.2066 0014265 189.4608 170.6354 15.10072244392686
CELTEE 1                
1 41850U 16067C   24014.88608061  .00007898  00000+0  57397-3 0  9991
2 41850  98.0838 176.8958 0001306  52.0940 308.0403 15.04140546392215
OPTICUBE 04             
1 41851U 16067D   24014.39678042  .00005475  00000+0  43029-3 0  9990
2 41851  98.0469 173.2233 0015461 210.5824 149.4499 15.01225917392004
AEROCUBE 8D             
1 41852U 16067E   24014.37896418  .00009410  00000+0  66882-3 0  9993
2 41852  98.0899 175.7728 0004366 267.5425  92.5300 15.04915556392095
AEROCUBE 8C             
1 41853U 16067F   24014.91762512  .00011172  00000+0  79399-3 0  9996
2 41853  98.0702 175.3133 0008212 193.9486 166.1513 15.04844393392160
PROMETHEUS 2-1          
1 41854U 16067G   24014.42749826  .00017726  00000+0  10614-2 0  9991
2 41854  98.0858 179.9512 0014000 222.2856 137.7294 15.11000030392321
PROMETHEUS 2-3          
1 41855U 16067H   24014.42266285  .00017535  00000+0  10511-2 0  9999
2 41855  98.0780 179.5873 0011821 232.3774 127.6381 15.10987314392324
DIDO-2                  
1 42000U 17008BE  24015.13668426  .00066019  00000+0  10302-2 0  9999
2 42000  97.1700  74.2371 0004392 357.6355   2.4878 15.53604460384679
